LEMUR-2-ANDIS           
1 42838U 17042P   26068.55941107  .00023598  00000+0  79875-3 0  9998
2 42838  97.3659 249.7950 0009101   4.3248 355.8070 15.30557934473198
STARLINK-1422           
1 45696U 20035AR  26068.31765243  .00006353  00000+0  22631-3 0  9996
2 45696  53.1601  51.3097 0001248  97.1676 262.9467 15.30216632318911
